ONEWEB-0197             
1 48236U 21031AC  26007.84625595  .00000227  00000+0  57685-3 0  9993
2 48236  87.9020 321.6396 0001977  85.5151 274.6204 13.14502926227122
ONEWEB-0194             
1 48237U 21031AD  26007.82577892 -.00000108  00000+0 -32664-3 0  9998
2 48237  87.9015 321.6608 0001833  72.8828 287.2502 13.14501688227297
ONEWEB-0193             
1 48238U 21031AE  26007.84163837  .00000133  00000+0  32453-3 0  9993
2 48238  87.9014 321.6515 0001990  68.2300 291.9041 13.14502505227246
ONEWEB-0191             
1 48239U 21031AF  26007.85274491  .00000244  00000+0  62303-3 0  9994
2 48239  87.9020 321.6413 0001801  79.8914 280.2419 13.14503044227105
ONEWEB-0195             
1 48240U 21031AG  26007.82973785 -.00000028  00000+0 -10879-3 0  9998
2 48240  87.9026 321.6438 0001350  82.7562 277.3721 13.14504016227081
ONEWEB-0201             
1 48241U 21031AH  26007.81798931 -.00000206  00000+0 -58927-3 0  9990
2 48241  87.9011 321.6807 0001767  89.8567 270.2765 13.14504701227318
ONEWEB-0207             
1 48242U 21031AJ  26007.41742706 -.00000028  00000+0 -11003-3 0  9992
2 48242  87.9024 321.7261 0001809  86.9861 273.1475 13.14504309227178
ONEWEB-0208             
1 48243U 21031AK  26007.85591204  .00000248  00000+0  63416-3 0  9993
2 48243  87.9019 321.6521 0001451  79.8957 280.2336 13.14503562227244
ONEWEB-0200             
1 48244U 21031AL  26007.81943381 -.00000133  00000+0 -39303-3 0  9990
2 48244  87.9018 321.6490 0001638  81.9407 278.1908 13.14503755227166
ONEWEB-0217             
1 48245U 21031AM  26007.83528853  .00000049  00000+0  96494-4 0  9995
2 48245  87.9024 321.6425 0001410  80.4063 279.7226 13.14502476227116
ONEWEB-0211             
1 48767U 21045A   26007.78587005  .00000091  00000+0  20527-3 0  9997
2 48767  87.9018 291.1271 0001275  64.6980 295.4282 13.16139424223348
ONEWEB-0223             
1 48768U 21045B   26007.78837280 -.00000959  00000+0 -25810-2 0  9995
2 48768  87.9015 291.1956 0001539  59.2738 300.8544 13.15541636223310
ONEWEB-0230             
1 48769U 21045C   26007.83589868  .00000126  00000+0  30133-3 0  9997
2 48769  87.9004 291.2143 0001808  75.4750 284.6580 13.15548905223585
ONEWEB-0237             
1 48770U 21045D   26007.82480750  .00000020  00000+0  20411-4 0  9990
2 48770  87.9009 291.2172 0001665  64.3040 295.8262 13.15548548223308
ONEWEB-0235             
1 48771U 21045E   26007.72339800  .00000005  00000+0 -19562-4 0  9998
2 48771  87.9014 291.2099 0001538  58.1544 301.9735 13.15548038223287
ONEWEB-0242             
1 48772U 21045F   26007.71706192 -.00000087  00000+0 -26393-3 0  9990
2 48772  87.9019 291.2051 0001753  68.3257 291.8060 13.15548292223329
ONEWEB-0241             
1 48773U 21045G   26007.78044895  .00000228  00000+0  57089-3 0  9994
2 48773  87.9009 291.2277 0001309  64.7072 295.4193 13.15548900223245
