[{"OBJECT_NAME":"ONEWEB-0197","OBJECT_ID":"2021-031AC","EPOCH":"2026-01-07T20:18:36.514080","MEAN_MOTION":13.14502926,"ECCENTRICITY":0.0001977,"INCLINATION":87.902,"RA_OF_ASC_NODE":321.6396,"ARG_OF_PERICENTER":85.5151,"MEAN_ANOMALY":274.6204,"EPHEMERIS_TYPE":0,"CLASSIFICATION_TYPE":"U","NORAD_CAT_ID":48236,"ELEMENT_SET_NO":999,"REV_AT_EPOCH":22712,"BSTAR":0.00057685,"MEAN_MOTION_DOT":2.27e-6,"MEAN_MOTION_DDOT":0},{"OBJECT_NAME":"ONEWEB-0194","OBJECT_ID":"2021-031AD","EPOCH":"2026-01-07T19:49:07.298688","MEAN_MOTION":13.14501688,"ECCENTRICITY":0.0001833,"INCLINATION":87.9015,"RA_OF_ASC_NODE":321.6608,"ARG_OF_PERICENTER":72.8828,"MEAN_ANOMALY":287.2502,"EPHEMERIS_TYPE":0,"CLASSIFICATION_TYPE":"U","NORAD_CAT_ID":48237,"ELEMENT_SET_NO":999,"REV_AT_EPOCH":22729,"BSTAR":-0.00032664,"MEAN_MOTION_DOT":-1.08e-6,"MEAN_MOTION_DDOT":0},{"OBJECT_NAME":"ONEWEB-0193","OBJECT_ID":"2021-031AE","EPOCH":"2026-01-07T20:11:57.555168","MEAN_MOTION":13.14502505,"ECCENTRICITY":0.000199,"INCLINATION":87.9014,"RA_OF_ASC_NODE":321.6515,"ARG_OF_PERICENTER":68.23,"MEAN_ANOMALY":291.9041,"EPHEMERIS_TYPE":0,"CLASSIFICATION_TYPE":"U","NORAD_CAT_ID":48238,"ELEMENT_SET_NO":999,"REV_AT_EPOCH":22724,"BSTAR":0.00032453,"MEAN_MOTION_DOT":1.33e-6,"MEAN_MOTION_DDOT":0},{"OBJECT_NAME":"ONEWEB-0191","OBJECT_ID":"2021-031AF","EPOCH":"2026-01-07T20:27:57.160224","MEAN_MOTION":13.14503044,"ECCENTRICITY":0.0001801,"INCLINATION":87.902,"RA_OF_ASC_NODE":321.6413,"ARG_OF_PERICENTER":79.8914,"MEAN_ANOMALY":280.2419,"EPHEMERIS_TYPE":0,"CLASSIFICATION_TYPE":"U","NORAD_CAT_ID":48239,"ELEMENT_SET_NO":999,"REV_AT_EPOCH":22710,"BSTAR":0.00062303,"MEAN_MOTION_DOT":2.44e-6,"MEAN_MOTION_DDOT":0},{"OBJECT_NAME":"ONEWEB-0195","OBJECT_ID":"2021-031AG","EPOCH":"2026-01-07T19:54:49.350240","MEAN_MOTION":13.14504016,"ECCENTRICITY":0.000135,"INCLINATION":87.9026,"RA_OF_ASC_NODE":321.6438,"ARG_OF_PERICENTER":82.7562,"MEAN_ANOMALY":277.3721,"EPHEMERIS_TYPE":0,"CLASSIFICATION_TYPE":"U","NORAD_CAT_ID":48240,"ELEMENT_SET_NO":999,"REV_AT_EPOCH":22708,"BSTAR":-0.00010879,"MEAN_MOTION_DOT":-2.8e-7,"MEAN_MOTION_DDOT":0},{"OBJECT_NAME":"ONEWEB-0201","OBJECT_ID":"2021-031AH","EPOCH":"2026-01-07T19:37:54.276384","MEAN_MOTION":13.14504701,"ECCENTRICITY":0.0001767,"INCLINATION":87.9011,"RA_OF_ASC_NODE":321.6807,"ARG_OF_PERICENTER":89.8567,"MEAN_ANOMALY":270.2765,"EPHEMERIS_TYPE":0,"CLASSIFICATION_TYPE":"U","NORAD_CAT_ID":48241,"ELEMENT_SET_NO":999,"REV_AT_EPOCH":22731,"BSTAR":-0.00058927,"MEAN_MOTION_DOT":-2.06e-6,"MEAN_MOTION_DDOT":0},{"OBJECT_NAME":"ONEWEB-0207","OBJECT_ID":"2021-031AJ","EPOCH":"2026-01-07T10:01:05.697984","MEAN_MOTION":13.14504309,"ECCENTRICITY":0.0001809,"INCLINATION":87.9024,"RA_OF_ASC_NODE":321.7261,"ARG_OF_PERICENTER":86.9861,"MEAN_ANOMALY":273.1475,"EPHEMERIS_TYPE":0,"CLASSIFICATION_TYPE":"U","NORAD_CAT_ID":48242,"ELEMENT_SET_NO":999,"REV_AT_EPOCH":22717,"BSTAR":-0.00011003,"MEAN_MOTION_DOT":-2.8e-7,"MEAN_MOTION_DDOT":0},{"OBJECT_NAME":"ONEWEB-0208","OBJECT_ID":"2021-031AK","EPOCH":"2026-01-07T20:32:30.800256","MEAN_MOTION":13.14503562,"ECCENTRICITY":0.0001451,"INCLINATION":87.9019,"RA_OF_ASC_NODE":321.6521,"ARG_OF_PERICENTER":79.8957,"MEAN_ANOMALY":280.2336,"EPHEMERIS_TYPE":0,"CLASSIFICATION_TYPE":"U","NORAD_CAT_ID":48243,"ELEMENT_SET_NO":999,"REV_AT_EPOCH":22724,"BSTAR":0.00063416,"MEAN_MOTION_DOT":2.48e-6,"MEAN_MOTION_DDOT":0},{"OBJECT_NAME":"ONEWEB-0200","OBJECT_ID":"2021-031AL","EPOCH":"2026-01-07T19:39:59.081184","MEAN_MOTION":13.14503755,"ECCENTRICITY":0.0001638,"INCLINATION":87.9018,"RA_OF_ASC_NODE":321.649,"ARG_OF_PERICENTER":81.9407,"MEAN_ANOMALY":278.1908,"EPHEMERIS_TYPE":0,"CLASSIFICATION_TYPE":"U","NORAD_CAT_ID":48244,"ELEMENT_SET_NO":999,"REV_AT_EPOCH":22716,"BSTAR":-0.00039303,"MEAN_MOTION_DOT":-1.33e-6,"MEAN_MOTION_DDOT":0},{"OBJECT_NAME":"ONEWEB-0217","OBJECT_ID":"2021-031AM","EPOCH":"2026-01-07T20:02:48.928992","MEAN_MOTION":13.14502476,"ECCENTRICITY":0.000141,"INCLINATION":87.9024,"RA_OF_ASC_NODE":321.6425,"ARG_OF_PERICENTER":80.4063,"MEAN_ANOMALY":279.7226,"EPHEMERIS_TYPE":0,"CLASSIFICATION_TYPE":"U","NORAD_CAT_ID":48245,"ELEMENT_SET_NO":999,"REV_AT_EPOCH":22711,"BSTAR":9.6494e-5,"MEAN_MOTION_DOT":4.9e-7,"MEAN_MOTION_DDOT":0},{"OBJECT_NAME":"ONEWEB-0211","OBJECT_ID":"2021-045A","EPOCH":"2026-01-07T18:51:39.172320","MEAN_MOTION":13.16139424,"ECCENTRICITY":0.0001275,"INCLINATION":87.9018,"RA_OF_ASC_NODE":291.1271,"ARG_OF_PERICENTER":64.698,"MEAN_ANOMALY":295.4282,"EPHEMERIS_TYPE":0,"CLASSIFICATION_TYPE":"U","NORAD_CAT_ID":48767,"ELEMENT_SET_NO":999,"REV_AT_EPOCH":22334,"BSTAR":0.00020527,"MEAN_MOTION_DOT":9.1e-7,"MEAN_MOTION_DDOT":0},{"OBJECT_NAME":"ONEWEB-0223","OBJECT_ID":"2021-045B","EPOCH":"2026-01-07T18:55:15.409920","MEAN_MOTION":13.15541636,"ECCENTRICITY":0.0001539,"INCLINATION":87.9015,"RA_OF_ASC_NODE":291.1956,"ARG_OF_PERICENTER":59.2738,"MEAN_ANOMALY":300.8544,"EPHEMERIS_TYPE":0,"CLASSIFICATION_TYPE":"U","NORAD_CAT_ID":48768,"ELEMENT_SET_NO":999,"REV_AT_EPOCH":22331,"BSTAR":-0.002581,"MEAN_MOTION_DOT":-9.59e-6,"MEAN_MOTION_DDOT":0},{"OBJECT_NAME":"ONEWEB-0230","OBJECT_ID":"2021-045C","EPOCH":"2026-01-07T20:03:41.645952","MEAN_MOTION":13.15548905,"ECCENTRICITY":0.0001808,"INCLINATION":87.9004,"RA_OF_ASC_NODE":291.2143,"ARG_OF_PERICENTER":75.475,"MEAN_ANOMALY":284.658,"EPHEMERIS_TYPE":0,"CLASSIFICATION_TYPE":"U","NORAD_CAT_ID":48769,"ELEMENT_SET_NO":999,"REV_AT_EPOCH":22358,"BSTAR":0.00030133,"MEAN_MOTION_DOT":1.26e-6,"MEAN_MOTION_DDOT":0},{"OBJECT_NAME":"ONEWEB-0237","OBJECT_ID":"2021-045D","EPOCH":"2026-01-07T19:47:43.368000","MEAN_MOTION":13.15548548,"ECCENTRICITY":0.0001665,"INCLINATION":87.9009,"RA_OF_ASC_NODE":291.2172,"ARG_OF_PERICENTER":64.304,"MEAN_ANOMALY":295.8262,"EPHEMERIS_TYPE":0,"CLASSIFICATION_TYPE":"U","NORAD_CAT_ID":48770,"ELEMENT_SET_NO":999,"REV_AT_EPOCH":22330,"BSTAR":2.0411e-5,"MEAN_MOTION_DOT":2.0e-7,"MEAN_MOTION_DDOT":0},{"OBJECT_NAME":"ONEWEB-0235","OBJECT_ID":"2021-045E","EPOCH":"2026-01-07T17:21:41.587200","MEAN_MOTION":13.15548038,"ECCENTRICITY":0.0001538,"INCLINATION":87.9014,"RA_OF_ASC_NODE":291.2099,"ARG_OF_PERICENTER":58.1544,"MEAN_ANOMALY":301.9735,"EPHEMERIS_TYPE":0,"CLASSIFICATION_TYPE":"U","NORAD_CAT_ID":48771,"ELEMENT_SET_NO":999,"REV_AT_EPOCH":22328,"BSTAR":-1.9562e-5,"MEAN_MOTION_DOT":5.0e-8,"MEAN_MOTION_DDOT":0},{"OBJECT_NAME":"ONEWEB-0242","OBJECT_ID":"2021-045F","EPOCH":"2026-01-07T17:12:34.149888","MEAN_MOTION":13.15548292,"ECCENTRICITY":0.0001753,"INCLINATION":87.9019,"RA_OF_ASC_NODE":291.2051,"ARG_OF_PERICENTER":68.3257,"MEAN_ANOMALY":291.806,"EPHEMERIS_TYPE":0,"CLASSIFICATION_TYPE":"U","NORAD_CAT_ID":48772,"ELEMENT_SET_NO":999,"REV_AT_EPOCH":22332,"BSTAR":-0.00026393,"MEAN_MOTION_DOT":-8.7e-7,"MEAN_MOTION_DDOT":0},{"OBJECT_NAME":"ONEWEB-0241","OBJECT_ID":"2021-045G","EPOCH":"2026-01-07T18:43:50.789280","MEAN_MOTION":13.155489,"ECCENTRICITY":0.0001309,"INCLINATION":87.9009,"RA_OF_ASC_NODE":291.2277,"ARG_OF_PERICENTER":64.7072,"MEAN_ANOMALY":295.4193,"EPHEMERIS_TYPE":0,"CLASSIFICATION_TYPE":"U","NORAD_CAT_ID":48773,"ELEMENT_SET_NO":999,"REV_AT_EPOCH":22324,"BSTAR":0.00057089,"MEAN_MOTION_DOT":2.28e-6,"MEAN_MOTION_DDOT":0}]
